[{"OBJECT_NAME":"STARLINK-33923","OBJECT_ID":"2025-091M","EPOCH":"2026-03-09T23:12:43.789536","MEAN_MOTION":15.27567386,"ECCENTRICITY":9.295e-5,"INCLINATION":42.9977,"RA_OF_ASC_NODE":51.0479,"ARG_OF_PERICENTER":296.324,"MEAN_ANOMALY":63.7517,"EPHEMERIS_TYPE":0,"CLASSIFICATION_TYPE":"U","NORAD_CAT_ID":63786,"ELEMENT_SET_NO":999,"REV_AT_EPOCH":4889,"BSTAR":0.00087343623,"MEAN_MOTION_DOT":0.00023841,"MEAN_MOTION_DDOT":0},{"OBJECT_NAME":"CZ-3B R\/B","OBJECT_ID":"2018-078C","EPOCH":"2026-03-09T09:00:08.990784","MEAN_MOTION":4.64580452,"ECCENTRICITY":0.55030715,"INCLINATION":54.9747,"RA_OF_ASC_NODE":290.319,"ARG_OF_PERICENTER":327.3189,"MEAN_ANOMALY":8.2764,"EPHEMERIS_TYPE":0,"CLASSIFICATION_TYPE":"U","NORAD_CAT_ID":43649,"ELEMENT_SET_NO":999,"REV_AT_EPOCH":12457,"BSTAR":0.00043720583,"MEAN_MOTION_DOT":2.66e-6,"MEAN_MOTION_DDOT":0}]
